[{"OBJECT_NAME":"STARLINK-31486","OBJECT_ID":"2024-045D","EPOCH":"2026-03-09T01:35:46.888224","MEAN_MOTION":15.275756,"ECCENTRICITY":0.00019468,"INCLINATION":43.0039,"RA_OF_ASC_NODE":92.8157,"ARG_OF_PERICENTER":286.8405,"MEAN_ANOMALY":73.2233,"EPHEMERIS_TYPE":0,"CLASSIFICATION_TYPE":"U","NORAD_CAT_ID":59181,"ELEMENT_SET_NO":999,"REV_AT_EPOCH":11310,"BSTAR":3.2456743e-5,"MEAN_MOTION_DOT":6.31e-6,"MEAN_MOTION_DDOT":0},{"OBJECT_NAME":"TEVEL2-2","OBJECT_ID":"2025-052K","EPOCH":"2026-03-09T15:33:48.895776","MEAN_MOTION":15.30343745,"ECCENTRICITY":0.0004693,"INCLINATION":97.3987,"RA_OF_ASC_NODE":324.77,"ARG_OF_PERICENTER":105.793,"MEAN_ANOMALY":254.3828,"EPHEMERIS_TYPE":0,"CLASSIFICATION_TYPE":"U","NORAD_CAT_ID":63219,"ELEMENT_SET_NO":999,"REV_AT_EPOCH":5485,"BSTAR":0.00069428,"MEAN_MOTION_DOT":0.00020339,"MEAN_MOTION_DDOT":0}]
